CZ-2D R/B               
1 28738U 05024B   26062.42243664  .00046076  00000+0  58022-3 0  9998
2 28738  97.3594  77.3410 0006772  62.8916 297.3030 15.59482583138807
ALOS (DAICHI)           
1 28931U 06002A   26062.44404807  .00001882  00000+0  32361-3 0  9994
2 28931  98.1208  18.4313 0001159  51.1627 308.9682 14.69785748 72566
H-2A R/B                
1 28932U 06002B   26062.40614912  .00011806  00000+0  59324-3 0  9996
2 28932  98.2397 208.8910 0051915 262.6569  96.8760 15.16255084 93486
RESURS-DK 1             
1 29228U 06021A   26062.25358406  .00003181  00000+0  18739-3 0  9994
2 29228  69.9303 253.6728 0002472 165.4890 194.6347 15.12692016 86557
CZ-4B R/B               
1 29507U 06046C   26062.47426101  .00006265  00000+0  31807-3 0  9990
2 29507  97.5603 107.3993 0031795 289.9796  69.8014 15.16825729 59101
CZ-2C R/B               
1 31114U 07010B   26062.31492348  .00000153  00000+0  89719-4 0  9994
2 31114  98.3976 175.9135 0058070 313.4842  46.1516 14.20243536978816
COSMO-SKYMED 1          
1 31598U 07023A   26062.51301509  .00004078  00000+0  36437-3 0  9992
2 31598  97.8861 253.4962 0000819  88.0053 272.1262 14.96475186 13984
COSMOS 2428             
1 31792U 07029A   26062.51714019  .00000071  00000+0  64068-4 0  9999
2 31792  70.9421 216.2987 0008775 283.5845  76.4298 14.12944470963228
SL-16 R/B               
1 31793U 07029B   26062.48490409 -.00000165  00000+0 -60602-4 0  9996
2 31793  70.9756 185.4263 0002419 278.1646 150.5309 14.14833970964493
KORONAS-FOTON           
1 33504U 09003A   26062.08565164  .00013829  00000+0  31090-3 0  9996
2 33504  82.4283 282.7444 0010761 172.1553 187.9864 15.43131401944726
CZ-2C R/B               
1 37731U 11030B   26062.47439578  .00002317  00000+0  29758-3 0  9995
2 37731  97.8532  19.8622 0052995  12.2898 101.3972 14.81192139789179
H-2A R/B                
1 38341U 12025E   26062.50466527  .00005215  00000+0  47285-3 0  9991
2 38341  98.4714  29.0557 0043931 334.7433  25.1637 14.95099857747299
SHIJIAN-16 (SJ-16)      
1 39358U 13057A   26062.52842156  .00002855  00000+0  28160-3 0  9992
2 39358  74.9726 196.7500 0015668 128.6097 231.6497 14.92307545670580
SL-4 R/B                
1 39679U 14021B   26062.20064178  .00018805  00000+0  41513-3 0  9994
2 39679  51.6082   8.9286 0098098  79.3446 281.8567 15.38921077655273
ALOS-2                  
1 39766U 14029A   26062.56430580  .00003146  00000+0  42788-3 0  9999
2 39766  97.9203 161.2504 0001497  99.2056 260.9324 14.79475457635962
YAOGAN-29               
1 41038U 15069A   26062.51955240  .00001092  00000+0  14113-3 0  9998
2 41038  98.0151  90.9326 0002298  46.8294 313.3111 14.82989710554966
ASTRO-H (HITOMI)        
1 41337U 16012A   26062.28812589  .00004520  00000+0  26589-3 0  9990
2 41337  31.0005  37.8551 0010016 267.5295  92.4196 15.09949072551268
