[{"OBJECT_NAME":"CZ-2D R/B","OBJECT_ID":"2005-024B","EPOCH":"2026-03-03T10:08:18.525696","MEAN_MOTION":15.59482583,"ECCENTRICITY":0.0006772,"INCLINATION":97.3594,"RA_OF_ASC_NODE":77.341,"ARG_OF_PERICENTER":62.8916,"MEAN_ANOMALY":297.303,"EPHEMERIS_TYPE":0,"CLASSIFICATION_TYPE":"U","NORAD_CAT_ID":28738,"ELEMENT_SET_NO":999,"REV_AT_EPOCH":13880,"BSTAR":0.00058022,"MEAN_MOTION_DOT":0.00046076,"MEAN_MOTION_DDOT":0},{"OBJECT_NAME":"ALOS (DAICHI)","OBJECT_ID":"2006-002A","EPOCH":"2026-03-03T10:39:25.753248","MEAN_MOTION":14.69785748,"ECCENTRICITY":0.0001159,"INCLINATION":98.1208,"RA_OF_ASC_NODE":18.4313,"ARG_OF_PERICENTER":51.1627,"MEAN_ANOMALY":308.9682,"EPHEMERIS_TYPE":0,"CLASSIFICATION_TYPE":"U","NORAD_CAT_ID":28931,"ELEMENT_SET_NO":999,"REV_AT_EPOCH":7256,"BSTAR":0.00032361,"MEAN_MOTION_DOT":1.882e-5,"MEAN_MOTION_DDOT":0},{"OBJECT_NAME":"H-2A R/B","OBJECT_ID":"2006-002B","EPOCH":"2026-03-03T09:44:51.283968","MEAN_MOTION":15.16255084,"ECCENTRICITY":0.0051915,"INCLINATION":98.2397,"RA_OF_ASC_NODE":208.891,"ARG_OF_PERICENTER":262.6569,"MEAN_ANOMALY":96.876,"EPHEMERIS_TYPE":0,"CLASSIFICATION_TYPE":"U","NORAD_CAT_ID":28932,"ELEMENT_SET_NO":999,"REV_AT_EPOCH":9348,"BSTAR":0.00059324,"MEAN_MOTION_DOT":0.00011806,"MEAN_MOTION_DDOT":0},{"OBJECT_NAME":"RESURS-DK 1","OBJECT_ID":"2006-021A","EPOCH":"2026-03-03T06:05:09.662784","MEAN_MOTION":15.12692016,"ECCENTRICITY":0.0002472,"INCLINATION":69.9303,"RA_OF_ASC_NODE":253.6728,"ARG_OF_PERICENTER":165.489,"MEAN_ANOMALY":194.6347,"EPHEMERIS_TYPE":0,"CLASSIFICATION_TYPE":"U","NORAD_CAT_ID":29228,"ELEMENT_SET_NO":999,"REV_AT_EPOCH":8655,"BSTAR":0.00018739,"MEAN_MOTION_DOT":3.181e-5,"MEAN_MOTION_DDOT":0},{"OBJECT_NAME":"CZ-4B R/B","OBJECT_ID":"2006-046C","EPOCH":"2026-03-03T11:22:56.151264","MEAN_MOTION":15.16825729,"ECCENTRICITY":0.0031795,"INCLINATION":97.5603,"RA_OF_ASC_NODE":107.3993,"ARG_OF_PERICENTER":289.9796,"MEAN_ANOMALY":69.8014,"EPHEMERIS_TYPE":0,"CLASSIFICATION_TYPE":"U","NORAD_CAT_ID":29507,"ELEMENT_SET_NO":999,"REV_AT_EPOCH":5910,"BSTAR":0.00031807,"MEAN_MOTION_DOT":6.265e-5,"MEAN_MOTION_DDOT":0},{"OBJECT_NAME":"CZ-2C R/B","OBJECT_ID":"2007-010B","EPOCH":"2026-03-03T07:33:29.388672","MEAN_MOTION":14.20243536,"ECCENTRICITY":0.005807,"INCLINATION":98.3976,"RA_OF_ASC_NODE":175.9135,"ARG_OF_PERICENTER":313.4842,"MEAN_ANOMALY":46.1516,"EPHEMERIS_TYPE":0,"CLASSIFICATION_TYPE":"U","NORAD_CAT_ID":31114,"ELEMENT_SET_NO":999,"REV_AT_EPOCH":97881,"BSTAR":8.9719e-5,"MEAN_MOTION_DOT":1.53e-6,"MEAN_MOTION_DDOT":0},{"OBJECT_NAME":"COSMO-SKYMED 1","OBJECT_ID":"2007-023A","EPOCH":"2026-03-03T12:18:44.503776","MEAN_MOTION":14.96475186,"ECCENTRICITY":8.19e-5,"INCLINATION":97.8861,"RA_OF_ASC_NODE":253.4962,"ARG_OF_PERICENTER":88.0053,"MEAN_ANOMALY":272.1262,"EPHEMERIS_TYPE":0,"CLASSIFICATION_TYPE":"U","NORAD_CAT_ID":31598,"ELEMENT_SET_NO":999,"REV_AT_EPOCH":1398,"BSTAR":0.00036437,"MEAN_MOTION_DOT":4.078e-5,"MEAN_MOTION_DDOT":0},{"OBJECT_NAME":"COSMOS 2428","OBJECT_ID":"2007-029A","EPOCH":"2026-03-03T12:24:40.912416","MEAN_MOTION":14.1294447,"ECCENTRICITY":0.0008775,"INCLINATION":70.9421,"RA_OF_ASC_NODE":216.2987,"ARG_OF_PERICENTER":283.5845,"MEAN_ANOMALY":76.4298,"EPHEMERIS_TYPE":0,"CLASSIFICATION_TYPE":"U","NORAD_CAT_ID":31792,"ELEMENT_SET_NO":999,"REV_AT_EPOCH":96322,"BSTAR":6.4068e-5,"MEAN_MOTION_DOT":7.1e-7,"MEAN_MOTION_DDOT":0},{"OBJECT_NAME":"SL-16 R/B","OBJECT_ID":"2007-029B","EPOCH":"2026-03-03T11:38:15.713376","MEAN_MOTION":14.1483397,"ECCENTRICITY":0.0002419,"INCLINATION":70.9756,"RA_OF_ASC_NODE":185.4263,"ARG_OF_PERICENTER":278.1646,"MEAN_ANOMALY":150.5309,"EPHEMERIS_TYPE":0,"CLASSIFICATION_TYPE":"U","NORAD_CAT_ID":31793,"ELEMENT_SET_NO":999,"REV_AT_EPOCH":96449,"BSTAR":-6.0602e-5,"MEAN_MOTION_DOT":-1.65e-6,"MEAN_MOTION_DDOT":0},{"OBJECT_NAME":"KORONAS-FOTON","OBJECT_ID":"2009-003A","EPOCH":"2026-03-03T02:03:20.301696","MEAN_MOTION":15.43131401,"ECCENTRICITY":0.0010761,"INCLINATION":82.4283,"RA_OF_ASC_NODE":282.7444,"ARG_OF_PERICENTER":172.1553,"MEAN_ANOMALY":187.9864,"EPHEMERIS_TYPE":0,"CLASSIFICATION_TYPE":"U","NORAD_CAT_ID":33504,"ELEMENT_SET_NO":999,"REV_AT_EPOCH":94472,"BSTAR":0.0003109,"MEAN_MOTION_DOT":0.00013829,"MEAN_MOTION_DDOT":0},{"OBJECT_NAME":"CZ-2C R/B","OBJECT_ID":"2011-030B","EPOCH":"2026-03-03T11:23:07.795392","MEAN_MOTION":14.81192139,"ECCENTRICITY":0.0052995,"INCLINATION":97.8532,"RA_OF_ASC_NODE":19.8622,"ARG_OF_PERICENTER":12.2898,"MEAN_ANOMALY":101.3972,"EPHEMERIS_TYPE":0,"CLASSIFICATION_TYPE":"U","NORAD_CAT_ID":37731,"ELEMENT_SET_NO":999,"REV_AT_EPOCH":78917,"BSTAR":0.00029758,"MEAN_MOTION_DOT":2.317e-5,"MEAN_MOTION_DDOT":0},{"OBJECT_NAME":"H-2A R/B","OBJECT_ID":"2012-025E","EPOCH":"2026-03-03T12:06:43.079328","MEAN_MOTION":14.95099857,"ECCENTRICITY":0.0043931,"INCLINATION":98.4714,"RA_OF_ASC_NODE":29.0557,"ARG_OF_PERICENTER":334.7433,"MEAN_ANOMALY":25.1637,"EPHEMERIS_TYPE":0,"CLASSIFICATION_TYPE":"U","NORAD_CAT_ID":38341,"ELEMENT_SET_NO":999,"REV_AT_EPOCH":74729,"BSTAR":0.00047285,"MEAN_MOTION_DOT":5.215e-5,"MEAN_MOTION_DDOT":0},{"OBJECT_NAME":"SHIJIAN-16 (SJ-16)","OBJECT_ID":"2013-057A","EPOCH":"2026-03-03T12:40:55.622784","MEAN_MOTION":14.92307545,"ECCENTRICITY":0.0015668,"INCLINATION":74.9726,"RA_OF_ASC_NODE":196.75,"ARG_OF_PERICENTER":128.6097,"MEAN_ANOMALY":231.6497,"EPHEMERIS_TYPE":0,"CLASSIFICATION_TYPE":"U","NORAD_CAT_ID":39358,"ELEMENT_SET_NO":999,"REV_AT_EPOCH":67058,"BSTAR":0.0002816,"MEAN_MOTION_DOT":2.855e-5,"MEAN_MOTION_DDOT":0},{"OBJECT_NAME":"SL-4 R/B","OBJECT_ID":"2014-021B","EPOCH":"2026-03-03T04:48:55.449792","MEAN_MOTION":15.38921077,"ECCENTRICITY":0.0098098,"INCLINATION":51.6082,"RA_OF_ASC_NODE":8.9286,"ARG_OF_PERICENTER":79.3446,"MEAN_ANOMALY":281.8567,"EPHEMERIS_TYPE":0,"CLASSIFICATION_TYPE":"U","NORAD_CAT_ID":39679,"ELEMENT_SET_NO":999,"REV_AT_EPOCH":65527,"BSTAR":0.00041513,"MEAN_MOTION_DOT":0.00018805,"MEAN_MOTION_DDOT":0},{"OBJECT_NAME":"ALOS-2","OBJECT_ID":"2014-029A","EPOCH":"2026-03-03T13:32:36.021120","MEAN_MOTION":14.79475457,"ECCENTRICITY":0.0001497,"INCLINATION":97.9203,"RA_OF_ASC_NODE":161.2504,"ARG_OF_PERICENTER":99.2056,"MEAN_ANOMALY":260.9324,"EPHEMERIS_TYPE":0,"CLASSIFICATION_TYPE":"U","NORAD_CAT_ID":39766,"ELEMENT_SET_NO":999,"REV_AT_EPOCH":63596,"BSTAR":0.00042788,"MEAN_MOTION_DOT":3.146e-5,"MEAN_MOTION_DDOT":0},{"OBJECT_NAME":"YAOGAN-29","OBJECT_ID":"2015-069A","EPOCH":"2026-03-03T12:28:09.327360","MEAN_MOTION":14.8298971,"ECCENTRICITY":0.0002298,"INCLINATION":98.0151,"RA_OF_ASC_NODE":90.9326,"ARG_OF_PERICENTER":46.8294,"MEAN_ANOMALY":313.3111,"EPHEMERIS_TYPE":0,"CLASSIFICATION_TYPE":"U","NORAD_CAT_ID":41038,"ELEMENT_SET_NO":999,"REV_AT_EPOCH":55496,"BSTAR":0.00014113,"MEAN_MOTION_DOT":1.092e-5,"MEAN_MOTION_DDOT":0},{"OBJECT_NAME":"ASTRO-H (HITOMI)","OBJECT_ID":"2016-012A","EPOCH":"2026-03-03T06:54:54.076896","MEAN_MOTION":15.09949072,"ECCENTRICITY":0.0010016,"INCLINATION":31.0005,"RA_OF_ASC_NODE":37.8551,"ARG_OF_PERICENTER":267.5295,"MEAN_ANOMALY":92.4196,"EPHEMERIS_TYPE":0,"CLASSIFICATION_TYPE":"U","NORAD_CAT_ID":41337,"ELEMENT_SET_NO":999,"REV_AT_EPOCH":55126,"BSTAR":0.00026589,"MEAN_MOTION_DOT":4.52e-5,"MEAN_MOTION_DDOT":0}]
